{
  "type": "FeatureCollection",
  "features": [
    {
      "type": "Feature",
      "properties": {
        "districtId": "Есиль",
        "kind": "building",
        "name": "Новая школа · Есиль",
        "demo": true
      },
      "geometry": {
        "type": "Polygon",
        "coordinates": [
          [
            [
              71.41820000000001,
              51.1222
            ],
            [
              71.4238,
              51.1222
            ],
            [
              71.4238,
              51.125800000000005
            ],
            [
              71.41820000000001,
              51.125800000000005
            ],
            [
              71.41820000000001,
              51.1222
            ]
          ]
        ]
      }
    },
    {
      "type": "Feature",
      "properties": {
        "districtId": "Есиль",
        "kind": "green",
        "name": "Новый парк · Есиль",
        "demo": true
      },
      "geometry": {
        "type": "Polygon",
        "coordinates": [
          [
            [
              71.439,
              51.1085
            ],
            [
              71.447,
              51.1085
            ],
            [
              71.447,
              51.113499999999995
            ],
            [
              71.439,
              51.113499999999995
            ],
            [
              71.439,
              51.1085
            ]
          ]
        ]
      }
    },
    {
      "type": "Feature",
      "properties": {
        "districtId": "Алматы",
        "kind": "building",
        "name": "Новая школа · Алматы",
        "demo": true
      },
      "geometry": {
        "type": "Polygon",
        "coordinates": [
          [
            [
              71.5032,
              51.109199999999994
            ],
            [
              71.5088,
              51.109199999999994
            ],
            [
              71.5088,
              51.1128
            ],
            [
              71.5032,
              51.1128
            ],
            [
              71.5032,
              51.109199999999994
            ]
          ]
        ]
      }
    },
    {
      "type": "Feature",
      "properties": {
        "districtId": "Алматы",
        "kind": "green",
        "name": "Новый парк · Алматы",
        "demo": true
      },
      "geometry": {
        "type": "Polygon",
        "coordinates": [
          [
            [
              71.524,
              51.090500000000006
            ],
            [
              71.53200000000001,
              51.090500000000006
            ],
            [
              71.53200000000001,
              51.0955
            ],
            [
              71.524,
              51.0955
            ],
            [
              71.524,
              51.090500000000006
            ]
          ]
        ]
      }
    },
    {
      "type": "Feature",
      "properties": {
        "districtId": "Сарыарка",
        "kind": "building",
        "name": "Новая школа · Сарыарка",
        "demo": true
      },
      "geometry": {
        "type": "Polygon",
        "coordinates": [
          [
            [
              71.3452,
              51.182199999999995
            ],
            [
              71.35079999999999,
              51.182199999999995
            ],
            [
              71.35079999999999,
              51.1858
            ],
            [
              71.3452,
              51.1858
            ],
            [
              71.3452,
              51.182199999999995
            ]
          ]
        ]
      }
    },
    {
      "type": "Feature",
      "properties": {
        "districtId": "Сарыарка",
        "kind": "green",
        "name": "Новый парк · Сарыарка",
        "demo": true
      },
      "geometry": {
        "type": "Polygon",
        "coordinates": [
          [
            [
              71.374,
              51.1755
            ],
            [
              71.382,
              51.1755
            ],
            [
              71.382,
              51.180499999999995
            ],
            [
              71.374,
              51.180499999999995
            ],
            [
              71.374,
              51.1755
            ]
          ]
        ]
      }
    },
    {
      "type": "Feature",
      "properties": {
        "districtId": "Байконур",
        "kind": "building",
        "name": "Новая школа · Байконур",
        "demo": true
      },
      "geometry": {
        "type": "Polygon",
        "coordinates": [
          [
            [
              71.4702,
              51.1812
            ],
            [
              71.47579999999999,
              51.1812
            ],
            [
              71.47579999999999,
              51.1848
            ],
            [
              71.4702,
              51.1848
            ],
            [
              71.4702,
              51.1812
            ]
          ]
        ]
      }
    },
    {
      "type": "Feature",
      "properties": {
        "districtId": "Байконур",
        "kind": "green",
        "name": "Новый парк · Байконур",
        "demo": true
      },
      "geometry": {
        "type": "Polygon",
        "coordinates": [
          [
            [
              71.5,
              51.167500000000004
            ],
            [
              71.50800000000001,
              51.167500000000004
            ],
            [
              71.50800000000001,
              51.1725
            ],
            [
              71.5,
              51.1725
            ],
            [
              71.5,
              51.167500000000004
            ]
          ]
        ]
      }
    },
    {
      "type": "Feature",
      "properties": {
        "districtId": "Нура",
        "kind": "building",
        "name": "Новая школа · Нура",
        "demo": true
      },
      "geometry": {
        "type": "Polygon",
        "coordinates": [
          [
            [
              71.3212,
              51.1252
            ],
            [
              71.32679999999999,
              51.1252
            ],
            [
              71.32679999999999,
              51.128800000000005
            ],
            [
              71.3212,
              51.128800000000005
            ],
            [
              71.3212,
              51.1252
            ]
          ]
        ]
      }
    },
    {
      "type": "Feature",
      "properties": {
        "districtId": "Нура",
        "kind": "green",
        "name": "Новый парк · Нура",
        "demo": true
      },
      "geometry": {
        "type": "Polygon",
        "coordinates": [
          [
            [
              71.348,
              51.112500000000004
            ],
            [
              71.35600000000001,
              51.112500000000004
            ],
            [
              71.35600000000001,
              51.1175
            ],
            [
              71.348,
              51.1175
            ],
            [
              71.348,
              51.112500000000004
            ]
          ]
        ]
      }
    },
    {
      "type": "Feature",
      "properties": {
        "kind": "transport",
        "name": "Маршрут связи районов",
        "demo": true
      },
      "geometry": {
        "type": "LineString",
        "coordinates": [
          [
            71.328,
            51.125
          ],
          [
            71.369,
            51.148
          ],
          [
            71.409,
            51.145
          ],
          [
            71.451,
            51.151
          ],
          [
            71.493,
            51.174
          ],
          [
            71.52,
            51.116
          ]
        ]
      }
    },
    {
      "type": "Feature",
      "properties": {
        "kind": "transport",
        "name": "Южный маршрут",
        "demo": true
      },
      "geometry": {
        "type": "LineString",
        "coordinates": [
          [
            71.355,
            51.181
          ],
          [
            71.391,
            51.16
          ],
          [
            71.42,
            51.125
          ],
          [
            71.478,
            51.114
          ],
          [
            71.526,
            51.096
          ]
        ]
      }
    },
    {
      "type": "Feature",
      "properties": {
        "districtId": "Алматы",
        "kind": "service",
        "name": "Сервисный пункт · Алматы",
        "symbol": "С",
        "demo": true
      },
      "geometry": {
        "type": "Point",
        "coordinates": [
          71.521,
          51.119
        ]
      }
    },
    {
      "type": "Feature",
      "properties": {
        "districtId": "Сарыарка",
        "kind": "service",
        "name": "Сервисный пункт · Сарыарка",
        "symbol": "С",
        "demo": true
      },
      "geometry": {
        "type": "Point",
        "coordinates": [
          71.366,
          51.189
        ]
      }
    }
  ]
}
