{
  "type": "FeatureCollection",
  "features": [
    {
      "type": "Feature",
      "id": "Есиль",
      "properties": {
        "districtId": "Есиль",
        "color": "#667f90"
      },
      "geometry": {
        "type": "Polygon",
        "coordinates": [
          [
            [
              71.382,
              51.155
            ],
            [
              71.414,
              51.169
            ],
            [
              71.469,
              51.147
            ],
            [
              71.473,
              51.111
            ],
            [
              71.438,
              51.086
            ],
            [
              71.368,
              51.095
            ],
            [
              71.396,
              51.129
            ],
            [
              71.382,
              51.155
            ]
          ]
        ]
      }
    },
    {
      "type": "Feature",
      "id": "Алматы",
      "properties": {
        "districtId": "Алматы",
        "color": "#bf806a"
      },
      "geometry": {
        "type": "Polygon",
        "coordinates": [
          [
            [
              71.469,
              51.147
            ],
            [
              71.526,
              51.15
            ],
            [
              71.556,
              51.127
            ],
            [
              71.56,
              51.093
            ],
            [
              71.523,
              51.067
            ],
            [
              71.438,
              51.086
            ],
            [
              71.473,
              51.111
            ],
            [
              71.469,
              51.147
            ]
          ]
        ]
      }
    },
    {
      "type": "Feature",
      "id": "Сарыарка",
      "properties": {
        "districtId": "Сарыарка",
        "color": "#baa167"
      },
      "geometry": {
        "type": "Polygon",
        "coordinates": [
          [
            [
              71.285,
              51.172
            ],
            [
              71.323,
              51.21
            ],
            [
              71.371,
              51.218
            ],
            [
              71.402,
              51.194
            ],
            [
              71.414,
              51.169
            ],
            [
              71.382,
              51.155
            ],
            [
              71.333,
              51.154
            ],
            [
              71.285,
              51.172
            ]
          ]
        ]
      }
    },
    {
      "type": "Feature",
      "id": "Байконур",
      "properties": {
        "districtId": "Байконур",
        "color": "#779b89"
      },
      "geometry": {
        "type": "Polygon",
        "coordinates": [
          [
            [
              71.402,
              51.194
            ],
            [
              71.445,
              51.215
            ],
            [
              71.513,
              51.209
            ],
            [
              71.542,
              51.179
            ],
            [
              71.526,
              51.15
            ],
            [
              71.469,
              51.147
            ],
            [
              71.414,
              51.169
            ],
            [
              71.402,
              51.194
            ]
          ]
        ]
      }
    },
    {
      "type": "Feature",
      "id": "Нура",
      "properties": {
        "districtId": "Нура",
        "color": "#9391af"
      },
      "geometry": {
        "type": "Polygon",
        "coordinates": [
          [
            [
              71.285,
              51.172
            ],
            [
              71.333,
              51.154
            ],
            [
              71.382,
              51.155
            ],
            [
              71.396,
              51.129
            ],
            [
              71.368,
              51.095
            ],
            [
              71.313,
              51.094
            ],
            [
              71.273,
              51.125
            ],
            [
              71.285,
              51.172
            ]
          ]
        ]
      }
    }
  ]
}
